NORAD_CAT_ID,OBJECT_NAME,OBJECT_TYPE,EPOCH,MEAN_MOTION,ECCENTRICITY,INCLINATION,RA_OF_ASC_NODE,ARG_OF_PERICENTER,MEAN_ANOMALY,BSTAR,MEAN_MOTION_DOT,MEAN_MOTION_DDOT,TLE_LINE0,TLE_LINE1,TLE_LINE2,SEMIMAJOR_AXIS,PERIOD,APOGEE,PERIGEE,DECAYED
54771.0,STARLINK-5451,PAYLOAD,2023-10-28 07:50:40,15.08833399,0.0001761,53.2162,314.7073,82.5613,277.5579,-6.3473e-05,-1.298e-05,0.0,0 STARLINK-5451,1 54771U 22175P   23301.32685424 -.00001298  00000-0 -63473-4 0  9993,2 54771  53.2162 314.7073 0001761  82.5613 277.5579 15.08833399 49655,6917.901,95.438,540.984,538.547,0.0
54771.0,STARLINK-5451,PAYLOAD,2023-10-29 04:30:40,15.08846456,0.0001678,53.2168,310.8412,88.5118,271.6066,3.6368e-05,2.91e-06,0.0,0 STARLINK-5451,1 54771U 22175P   23302.18796510  .00000291  00000-0  36368-4 0  9990,2 54771  53.2168 310.8412 0001678  88.5118 271.6066 15.08846456 47627,6917.861,95.437,540.886,538.565,0.0
54771.0,STARLINK-5451,PAYLOAD,2023-10-29 07:41:26,15.08853042,0.0001638,53.2165,310.2488,87.4597,272.6583,7.5392e-05,9.12e-06,0.0,0 STARLINK-5451,1 54771U 22175P   23302.32044072  .00000912  00000-0  75392-4 0  9995,2 54771  53.2165 310.2488 0001638  87.4597 272.6583 15.08853042 49802,6917.841,95.437,540.839,538.572,0.0
54771.0,STARLINK-5451,PAYLOAD,2023-10-29 17:13:45,15.08843813,0.0001667,53.217,308.4636,87.9618,272.1565,1.9369e-05,2e-07,0.0,0 STARLINK-5451,1 54771U 22175P   23302.71788643  .00000020  00000-0  19369-4 0  9999,2 54771  53.2170 308.4636 0001667  87.9618 272.1565 15.08843813 49869,6917.869,95.437,540.887,538.581,0.0
54771.0,STARLINK-5451,PAYLOAD,2023-10-30 04:21:27,15.08834965,0.000173,53.2154,306.3828,94.1879,265.9311,0.00013676,1.889e-05,0.0,0 STARLINK-5451,1 54771U 22175P   23303.18157382  .00001889  00000-0  13676-3 0  9999,2 54771  53.2154 306.3828 0001730  94.1879 265.9311 15.08834965 47776,6917.896,95.438,540.958,538.564,0.0
54771.0,STARLINK-5451,PAYLOAD,2023-10-30 17:04:32,15.08839547,0.0001704,53.2156,304.0048,92.1552,267.9636,0.00010514,1.386e-05,0.0,0 STARLINK-5451,1 54771U 22175P   23303.71149303  .00001386  00000-0  10514-3 0  9992,2 54771  53.2156 304.0048 0001704  92.1552 267.9636 15.08839547 50018,6917.882,95.438,540.926,538.568,0.0
54771.0,STARLINK-5451,PAYLOAD,2023-10-31 04:12:15,15.08829054,0.0001728,53.2157,301.9223,91.8836,268.2354,-0.00016298,-2.88e-05,0.0,0 STARLINK-5451,1 54771U 22175P   23304.17518002 -.00002880  00000-0 -16298-3 0  9996,2 54771  53.2157 301.9223 0001728  91.8836 268.2354 15.08829054 47926,6917.914,95.438,540.974,538.583,0.0
54771.0,STARLINK-5451,PAYLOAD,2023-10-31 08:58:25,15.08837574,0.0002043,53.2184,301.0293,85.0283,275.0942,-2.9559e-05,-7.59e-06,0.0,0 STARLINK-5451,1 54771U 22175P   23304.37390251 -.00000759  00000-0 -29559-4 0  9990,2 54771  53.2184 301.0293 0002043  85.0283 275.0942 15.08837574 50116,6917.888,95.438,541.166,538.339,0.0
54771.0,STARLINK-5451,PAYLOAD,2023-10-31 16:55:20,15.08840899,0.0002033,53.2186,299.5422,85.0225,275.0999,-2.0901e-05,-6.21e-06,0.0,0 STARLINK-5451,1 54771U 22175P   23304.70510057 -.00000621  00000-0 -20901-4 0  9995,2 54771  53.2186 299.5422 0002033  85.0225 275.0999 15.08840899 48009,6917.878,95.437,541.149,538.336,0.0
54771.0,STARLINK-5451,PAYLOAD,2023-11-01 08:49:11,15.08846789,0.0001928,53.2173,296.5673,88.0466,272.0747,0.00024498,3.614e-05,0.0,0 STARLINK-5451,1 54771U 22175P   23305.36749605  .00003614  00000-0  24498-3 0  9998,2 54771  53.2173 296.5673 0001928  88.0466 272.0747 15.08846789 50265,6917.86,95.437,541.058,538.391,0.0
54771.0,STARLINK-5451,PAYLOAD,2023-11-01 16:46:07,15.08838109,0.0002135,53.2178,295.0841,84.9881,275.1355,0.00010417,1.37e-05,0.0,0 STARLINK-5451,1 54771U 22175P   23305.69870170  .00001370  00000-0  10417-3 0  9999,2 54771  53.2178 295.0841 0002135  84.9881 275.1355 15.08838109 50310,6917.886,95.438,541.228,538.274,0.0
54771.0,STARLINK-5451,PAYLOAD,2023-11-02 05:29:12,15.08840407,0.00017,53.2169,292.7027,87.0858,273.0328,0.00018771,2.701e-05,0.0,0 STARLINK-5451,1 54771U 22175P   23306.22862063  .00002701  00000-0  18771-3 0  9991,2 54771  53.2169 292.7027 0001700  87.0858 273.0328 15.08840407 48234,6917.879,95.438,540.92,538.568,0.0
54771.0,STARLINK-5451,PAYLOAD,2023-11-02 07:04:35,15.08847941,0.0001801,53.216,292.4042,87.715,272.4048,0.00022451,3.288e-05,0.0,0 STARLINK-5451,1 54771U 22175P   23306.29485643  .00003288  00000-0  22451-3 0  9994,2 54771  53.2160 292.4042 0001801  87.7150 272.4048 15.08847941 50407,6917.856,95.437,540.967,538.475,0.0
54771.0,STARLINK-5451,PAYLOAD,2023-11-02 16:36:54,15.08844821,0.000195,53.2166,290.6206,92.0573,268.0642,0.00015774,2.224e-05,0.0,0 STARLINK-5451,1 54771U 22175P   23306.69229842  .00002224  00000-0  15774-3 0  9994,2 54771  53.2166 290.6206 0001950  92.0573 268.0642 15.08844821 50469,6917.866,95.437,541.08,538.382,0.0
54771.0,STARLINK-5451,PAYLOAD,2023-11-03 08:30:45,15.08852806,0.0001917,53.2167,287.6452,99.9321,260.1887,0.0001443,2.01e-05,0.0,0 STARLINK-5451,1 54771U 22175P   23307.35469227  .00002010  00000-0  14430-3 0  9992,2 54771  53.2167 287.6452 0001917  99.9321 260.1887 15.08852806 48406,6917.841,95.437,541.032,538.38,0.0
54771.0,STARLINK-5451,PAYLOAD,2023-11-03 16:27:41,15.08837185,0.0001899,53.2167,286.1596,93.6318,266.4891,-3.5808e-05,-8.58e-06,0.0,0 STARLINK-5451,1 54771U 22175P   23307.68589964 -.00000858  00000-0 -35808-4 0  9992,2 54771  53.2167 286.1596 0001899  93.6318 266.4891 15.08837185 48457,6917.889,95.438,541.068,538.44,0.0
54771.0,STARLINK-5451,PAYLOAD,2023-11-04 05:10:46,15.08846831,0.0001767,53.2163,283.7811,98.8139,261.3053,0.00021655,3.161e-05,0.0,0 STARLINK-5451,1 54771U 22175P   23308.21581654  .00003161  00000-0  21655-3 0  9992,2 54771  53.2163 283.7811 0001767  98.8139 261.3053 15.08846831 48539,6917.86,95.437,540.947,538.502,0.0
54771.0,STARLINK-5451,PAYLOAD,2023-11-05 03:26:10,15.08842883,0.0001775,53.2156,279.6165,102.3512,257.7678,0.00019013,2.739e-05,0.0,0 STARLINK-5451,1 54771U 22175P   23309.14317967  .00002739  00000-0  19013-3 0  9994,2 54771  53.2156 279.6165 0001775 102.3512 257.7678 15.08842883 48672,6917.872,95.437,540.964,538.509,0.0
54771.0,STARLINK-5451,PAYLOAD,2023-11-05 14:33:52,15.08849861,0.0001728,53.2162,277.533,101.1411,258.9775,0.0003769,5.717e-05,0.0,0 STARLINK-5451,1 54771U 22175P   23309.60685675  .00005717  00000-0  37690-3 0  9999,2 54771  53.2162 277.5330 0001728 101.1411 258.9775 15.08849861 50906,6917.85,95.437,540.911,538.52,0.0
54771.0,STARLINK-5451,PAYLOAD,2023-11-06 03:16:56,15.08886054,0.0001752,53.2157,275.1541,82.7033,277.4158,0.0014153,0.00022337,0.0,0 STARLINK-5451,1 54771U 22175P   23310.13676536  .00022337  00000-0  14153-2 0  9990,2 54771  53.2157 275.1541 0001752  82.7033 277.4158 15.08886054 48823,6917.74,95.435,540.817,538.393,0.0
54771.0,STARLINK-5451,PAYLOAD,2023-11-06 04:52:19,15.08905584,0.000166,53.2159,274.8612,102.1656,257.9522,0.0026896,0.00042855,0.0,0 STARLINK-5451,1 54771U 22175P   23310.20300101  .00042855  00000-0  26896-2 0  9994,2 54771  53.2159 274.8612 0001660 102.1656 257.9522 15.08905584 48835,6917.68,95.433,540.693,538.397,0.0
54771.0,STARLINK-5451,PAYLOAD,2023-11-06 14:24:36,15.08905014,8.02e-05,53.2151,273.0739,46.4279,313.678,0.00093711,0.00014684,0.0,0 STARLINK-5451,1 54771U 22175P   23310.60042681  .00014684  00000-0  93711-3 0  9994,2 54771  53.2151 273.0739 0000802  46.4279 313.6780 15.08905014 51058,6917.682,95.433,540.101,538.992,0.0
54771.0,STARLINK-5451,PAYLOAD,2023-11-07 04:43:06,15.08813018,0.0001405,53.2152,270.3955,70.2696,289.8448,-0.001129,-0.00018198,0.0,0 STARLINK-5451,1 54771U 22175P   23311.19660415 -.00018198  00000-0 -11290-2 0  9997,2 54771  53.2152 270.3955 0001405  70.2696 289.8448 15.08813018 48982,6917.963,95.439,540.8,538.856,0.0
54771.0,STARLINK-5451,PAYLOAD,2023-11-07 14:15:26,15.088017,0.0001766,53.216,268.6172,99.5008,260.6184,-0.00019962,-3.46e-05,0.0,0 STARLINK-5451,1 54771U 22175P   23311.59405955 -.00003460  00000-0 -19962-3 0  9998,2 54771  53.2160 268.6172 0001766  99.5008 260.6184 15.08801700 51201,6917.997,95.44,541.084,538.641,0.0
54771.0,STARLINK-5451,PAYLOAD,2023-11-08 02:58:32,15.08819585,0.0001675,53.2157,266.2361,92.3712,267.7472,0.00067101,0.00010401,0.0,0 STARLINK-5451,1 54771U 22175P   23312.12398848  .00010401  00000-0  67101-3 0  9999,2 54771  53.2157 266.2361 0001675  92.3712 267.7472 15.08819585 49129,6917.943,95.439,540.967,538.649,0.0
54771.0,STARLINK-5451,PAYLOAD,2023-11-08 06:09:18,15.08831564,0.0001586,53.2154,265.6411,104.5352,255.5816,0.0010602,0.00016621,0.0,0 STARLINK-5451,1 54771U 22175P   23312.25646688  .00016621  00000-0  10602-2 0  9994,2 54771  53.2154 265.6411 0001586 104.5352 255.5816 15.08831564 49142,6917.906,95.438,540.868,538.674,0.0
54771.0,STARLINK-5451,PAYLOAD,2023-11-09 04:24:42,15.08857738,0.0001549,53.2151,261.4785,94.4364,265.6805,0.00084911,0.00013258,0.0,0 STARLINK-5451,1 54771U 22175P   23313.18382313  .00013258  00000-0  84911-3 0  9997,2 54771  53.2151 261.4785 0001549  94.4364 265.6805 15.08857738 51443,6917.826,95.436,540.763,538.62,0.0
54771.0,STARLINK-5451,PAYLOAD,2023-11-10 02:40:06,15.08845771,0.0001641,53.2165,257.314,99.6191,260.4987,0.00057798,8.924e-05,0.0,0 STARLINK-5451,1 54771U 22175P   23314.11118677  .00008924  00000-0  57798-3 0  9998,2 54771  53.2165 257.3140 0001641  99.6191 260.4987 15.08845771 49428,6917.863,95.437,540.863,538.593,0.0
54771.0,STARLINK-5451,PAYLOAD,2023-11-10 13:47:48,15.08837515,0.0001519,53.2169,255.2322,101.5917,258.5246,0.00036814,5.575e-05,0.0,0 STARLINK-5451,1 54771U 22175P   23314.57486933  .00005575  00000-0  36814-3 0  9996,2 54771  53.2169 255.2322 0001519 101.5917 258.5246 15.08837515 51655,6917.888,95.438,540.804,538.702,0.0
54771.0,STARLINK-5451,PAYLOAD,2023-11-11 05:41:39,15.08855627,0.0001475,53.2168,252.2572,103.374,256.7416,0.00062165,9.624e-05,0.0,0 STARLINK-5451,1 54771U 22175P   23315.23726352  .00009624  00000-0  62165-3 0  9999,2 54771  53.2168 252.2572 0001475 103.3740 256.7416 15.08855627 49596,6917.833,95.437,540.718,538.677,0.0
